GLOBALSTAR M084         
1 38040U 11080A   25354.85594389 -.00000088  00000+0  86613-4 0  9999
2 38040  51.9982 200.1877 0001365  81.9379 290.9955 12.62266768646245
GLOBALSTAR M080         
1 38041U 11080B   25354.59087416 -.00000076  00000+0  15235-3 0  9997
2 38041  52.0032 202.6511 0000721 101.5817 276.1704 12.62265097646339
GLOBALSTAR M082         
1 38042U 11080C   25354.44811178 -.00000116  00000+0 -67280-4 0  9996
2 38042  52.0051 158.5665 0000818 110.7588 267.6086 12.62266378647022
GLOBALSTAR M092         
1 38043U 11080D   25354.45525516 -.00000071  00000+0  18020-3 0  9992
2 38043  52.0077 248.9336 0000886  67.9371 102.5403 12.62268529645475
GLOBALSTAR M090         
1 38044U 11080E   25354.81835074 -.00000124  00000+0 -11176-3 0  9991
2 38044  52.0097 151.3382 0000913  94.2643  46.2365 12.62265514647184
GLOBALSTAR M086         
1 38045U 11080F   25354.84862535 -.00000111  00000+0 -39116-4 0  9998
2 38045  51.9876 151.4664 0001483  51.0461 117.2317 12.62281365647137
GLOBALSTAR M097         
1 39072U 13005A   25354.60227095 -.00000116  00000+0 -65994-4 0  9996
2 39072  52.0061  66.9630 0000453 110.3083 249.7832 12.62267641594353
GLOBALSTAR M093         
1 39073U 13005B   25354.49698246 -.00000098  00000+0  29673-4 0  9996
2 39073  52.0117  60.5635 0000210 100.5516 259.5375 12.62271095594296
